CAS-2T & KS-1Q          
1 41847U 16066G   20287.20898384  .00000057  00000-0  19757-4 0  9999
2 41847  98.6408 338.8324 0364652 237.8796 118.6519 14.38097641206349
NAYIF-1 (EO-88)         
1 42017U 17008BX  20287.13719456  .00001472  00000-0  58573-4 0  9991
2 42017  97.3487 352.9316 0004477 263.7311  96.3418 15.26829751203505
MAX VALIER SAT          
1 42778U 17036P   20287.23406177  .00000864  00000-0  39807-4 0  9993
2 42778  97.2922 337.5407 0011201 335.3138  24.7562 15.22823934183659
RADFXSAT (FOX-1B)       
1 43017U 17073E   20287.31227971  .00000860  00000-0  71582-4 0  9995
2 43017  97.7150 194.9615 0257370  26.5864 334.8284 14.79059608156582
FOX-1D (AO-92)          
1 43137U 18004AC  20287.25880537  .00000983  00000-0  43065-4 0  9990
2 43137  97.4357 357.5705 0009262  12.3035 347.8427 15.24349003152992
DIWATA-2B               
1 43678U 18084H   20287.80581236 -.00000291  00000-0 -23192-4 0  9996
2 43678  97.8964  46.2944 0010581 139.0367 221.1646 14.91655430106665
ES'HAIL 2               
1 43700U 18090A   20287.57107329  .00000138  00000-0  00000-0 0  9997
2 43700   0.0222 219.0875 0001939   7.7901  27.0745  1.00269428  6890
FOX-1CLIFF (AO-95)      
1 43770U 18099N   20287.43945585 -.00000071  00000-0 -12253-5 0  9998
2 43770  97.6957 356.7035 0015100 157.9804 202.2069 14.95062319101548
ITASAT 1                
1 43786U 18099AE  20287.27620467  .00000642  00000-0  63175-4 0  9996
2 43786  97.6973 357.0470 0016030 152.4769 207.7304 14.95389665101541
JY1SAT (JO-97)          
1 43803U 18099AX  20287.47702764  .00000750  00000-0  72579-4 0  9997
2 43803  97.6933 357.0363 0016026 151.9787 208.2300 14.95581158101573
PSAT2 (NO-104)          
1 44354U 19036R   20287.40223988  .00008834  00000-0  12431-3 0  9991
2 44354  28.5295 324.8035 0356095 132.6061 230.5138 15.05641666 71599
BRICSAT2 (NO-103)       
1 44355U 19036S   20287.37826345  .00017812  00000-0  23689-3 0  9997
2 44355  28.5295 308.9345 0326994 158.3832 203.0918 15.13033289 71757
JAISAT-1                
1 44419U 19038F   20287.55187865  .00000912  00000-0  55164-4 0  9994
2 44419  97.5529 247.8613 0023148  83.9926 276.3942 15.12970000 70451
DUCHIFAT-3              
1 44854U 19089C   20287.92074199  .00000288  00000-0  29672-4 0  9990
2 44854  36.9651 118.1954 0009853 299.9804  59.9961 14.99152436 46083
RS-44 & BREEZE-KM R/B   
1 44909U 19096E   20287.49200067  .00000034  00000-0  97612-4 0  9994
2 44909  82.5170 276.8758 0216562 310.7531  47.4946 12.79708565 37280
ORBITAL FACTORY 2 (OF-2)
1 45113U 19071C   20287.62997541  .00001893  00000-0  68381-4 0  9995
2 45113  51.6431 152.5025 0013510 122.0962 238.1333 15.33802159 39268
HUSKYSAT-1              
1 45119U 19071J   20287.07161677  .00001410  00000-0  53596-4 0  9990
2 45119  51.6430 154.7744 0012800 116.8921 243.3371 15.33981773 39172
